NORAD_CAT_ID,OBJECT_NAME,OBJECT_TYPE,EPOCH,MEAN_MOTION,ECCENTRICITY,INCLINATION,RA_OF_ASC_NODE,ARG_OF_PERICENTER,MEAN_ANOMALY,BSTAR,MEAN_MOTION_DOT,MEAN_MOTION_DDOT,TLE_LINE0,TLE_LINE1,TLE_LINE2,SEMIMAJOR_AXIS,PERIOD,APOGEE,PERIGEE,DECAYED
55743.0,STARLINK-5602,PAYLOAD,2023-06-05 14:21:24,14.98335699,0.0003103,69.9993,266.3794,265.8767,94.2037,0.00011283,1.254e-05,0.0,0 STARLINK-5602,1 55743U 23028C   23156.59819721  .00001254  00000-0  11283-3 0  9998,2 55743  69.9993 266.3794 0003103 265.8767  94.2037 14.98335699 15037,6950.175,96.107,574.197,569.884,0.0
55743.0,STARLINK-5602,PAYLOAD,2023-06-05 17:33:40,14.98334704,0.0003185,69.9994,266.043,268.5492,91.5303,0.00011087,1.23e-05,0.0,0 STARLINK-5602,1 55743U 23028C   23156.73171756  .00001230  00000-0  11087-3 0  9999,2 55743  69.9994 266.0430 0003185 268.5492  91.5303 14.98334704 15051,6950.178,96.107,574.257,569.83,0.0
55743.0,STARLINK-5602,PAYLOAD,2023-06-06 07:58:53,14.98383251,0.0002786,69.9996,264.5279,255.3975,104.6875,-0.0008738,-0.00010518,0.0,0 STARLINK-5602,1 55743U 23028C   23157.33255862 -.00010518  00000-0 -87380-3 0  9997,2 55743  69.9996 264.5279 0002786 255.3975 104.6875 14.98383251 15144,6950.028,96.104,573.829,569.957,0.0
55743.0,STARLINK-5602,PAYLOAD,2023-06-06 11:11:08,14.98379174,0.0003309,69.9996,264.1913,266.2809,93.7971,-0.00082374,-9.921e-05,0.0,0 STARLINK-5602,1 55743U 23028C   23157.46607571 -.00009921  00000-0 -82374-3 0  9993,2 55743  69.9996 264.1913 0003309 266.2809  93.7971 14.98379174 15160,6950.041,96.104,574.206,569.606,0.0
55743.0,STARLINK-5602,PAYLOAD,2023-06-06 17:35:41,14.98334439,0.0003071,69.9997,263.5181,266.8313,93.2494,-5.3675e-06,-1.57e-06,0.0,0 STARLINK-5602,1 55743U 23028C   23157.73311853 -.00000157  00000-0 -53675-5 0  9994,2 55743  69.9997 263.5181 0003071 266.8313  93.2494 14.98334439 15208,6950.179,96.107,574.179,569.91,0.0
55743.0,STARLINK-5602,PAYLOAD,2023-06-07 08:00:54,14.98329253,0.0003048,69.9997,262.0029,267.5616,92.5194,-5.9399e-05,-8.02e-06,0.0,0 STARLINK-5602,1 55743U 23028C   23158.33396235 -.00000802  00000-0 -59399-4 0  9993,2 55743  69.9997 262.0029 0003048 267.5616  92.5194 14.98329253 15297,6950.195,96.107,574.179,569.942,0.0
55743.0,STARLINK-5602,PAYLOAD,2023-06-07 17:37:42,14.98328264,0.0003053,69.9998,260.993,267.9425,92.1384,-6.2439e-05,-8.38e-06,0.0,0 STARLINK-5602,1 55743U 23028C   23158.73452322 -.00000838  00000-0 -62439-4 0  9995,2 55743  69.9998 260.9930 0003053 267.9425  92.1384 14.98328264 15359,6950.198,96.107,574.185,569.941,0.0
55743.0,STARLINK-5602,PAYLOAD,2023-06-08 00:02:14,14.98360698,0.0003063,70.0,260.3197,275.0247,85.0562,-0.00062461,-7.544e-05,0.0,0 STARLINK-5602,1 55743U 23028C   23159.00155476 -.00007544  00000-0 -62461-3 0  9991,2 55743  70.0000 260.3197 0003063 275.0247  85.0562 14.98360698 15398,6950.098,96.105,574.092,569.834,0.0
55743.0,STARLINK-5602,PAYLOAD,2023-06-08 09:39:03,14.98329836,0.000311,69.9992,259.3091,269.5872,90.4931,4.0722e-05,3.93e-06,0.0,0 STARLINK-5602,1 55743U 23028C   23159.40211926  .00000393  00000-0  40722-4 0  9998,2 55743  69.9992 259.3091 0003110 269.5872  90.4931 14.98329836 15457,6950.193,96.107,574.22,569.897,0.0
55743.0,STARLINK-5602,PAYLOAD,2023-06-08 12:51:19,14.98329741,0.0003227,69.9991,258.9718,269.9569,90.122,-7.6138e-06,-1.84e-06,0.0,0 STARLINK-5602,1 55743U 23028C   23159.53564060 -.00000184  00000-0 -76138-5 0  9993,2 55743  69.9991 258.9718 0003227 269.9569  90.1220 14.98329741 15478,6950.194,96.107,574.302,569.816,0.0
55743.0,STARLINK-5602,PAYLOAD,2023-06-09 12:53:20,14.98327404,0.0003262,69.999,256.4476,268.7852,91.2934,1.033e-05,3e-07,0.0,0 STARLINK-5602,1 55743U 23028C   23160.53704214  .00000030  00000-0  10330-4 0  9991,2 55743  69.9990 256.4476 0003262 268.7852  91.2934 14.98327404 15627,6950.201,96.107,574.333,569.799,0.0
55743.0,STARLINK-5602,PAYLOAD,2023-06-09 16:05:36,14.98326841,0.0003281,69.999,256.1109,268.836,91.2423,1.6393e-06,-7.3e-07,0.0,0 STARLINK-5602,1 55743U 23028C   23160.67056290 -.00000073  00000-0  16393-5 0  9994,2 55743  69.9990 256.1109 0003281 268.8360  91.2423 14.98326841 15642,6950.203,96.107,574.348,569.787,0.0
55743.0,STARLINK-5602,PAYLOAD,2023-06-10 12:55:21,14.98332429,0.0003285,69.9991,253.9231,268.6917,91.3866,1.448e-05,8e-07,0.0,0 STARLINK-5602,1 55743U 23028C   23161.53843951  .00000080  00000-0  14480-4 0  9999,2 55743  69.9991 253.9231 0003285 268.6917  91.3866 14.98332429 15779,6950.185,96.107,574.334,569.767,0.0
55743.0,STARLINK-5602,PAYLOAD,2023-06-10 16:07:37,14.98333206,0.0003285,69.999,253.5862,268.9519,91.1264,2.2783e-05,1.79e-06,0.0,0 STARLINK-5602,1 55743U 23028C   23161.67195855  .00000179  00000-0  22783-4 0  9991,2 55743  69.9990 253.5862 0003285 268.9519  91.1264 14.98333206 15791,6950.183,96.107,574.331,569.765,0.0
55743.0,STARLINK-5602,PAYLOAD,2023-06-11 12:57:21,14.98333002,0.0003345,69.999,251.3981,269.3093,90.7683,5.0529e-05,5.1e-06,0.0,0 STARLINK-5602,1 55743U 23028C   23162.53983724  .00000510  00000-0  50529-4 0  9995,2 55743  69.9990 251.3981 0003345 269.3093  90.7683 14.98333002 15927,6950.184,96.107,574.373,569.724,0.0
55743.0,STARLINK-5602,PAYLOAD,2023-06-11 22:34:10,14.98333053,0.0003321,69.9991,250.3881,269.647,90.4308,6.4571e-05,6.78e-06,0.0,0 STARLINK-5602,1 55743U 23028C   23162.94039594  .00000678  00000-0  64571-4 0  9994,2 55743  69.9991 250.3881 0003321 269.6470  90.4308 14.98333053 15985,6950.183,96.107,574.357,569.74,0.0
55743.0,STARLINK-5602,PAYLOAD,2023-06-12 09:47:06,14.98334507,0.0003299,69.9992,249.2097,270.0396,90.0385,2.0573e-05,1.52e-06,0.0,0 STARLINK-5602,1 55743U 23028C   23163.40771506  .00000152  00000-0  20573-4 0  9993,2 55743  69.9992 249.2097 0003299 270.0396  90.0385 14.98334507 16054,6950.179,96.107,574.337,569.751,0.0
55743.0,STARLINK-5602,PAYLOAD,2023-06-13 00:12:19,14.98333528,0.0003314,69.9991,247.695,269.9579,90.1201,1.1105e-05,3.9e-07,0.0,0 STARLINK-5602,1 55743U 23028C   23164.00855397  .00000039  00000-0  11105-4 0  9996,2 55743  69.9991 247.6950 0003314 269.9579  90.1201 14.98333528 16141,6950.182,96.107,574.35,569.744,0.0
55743.0,STARLINK-5602,PAYLOAD,2023-06-13 06:36:51,14.98325922,0.0003341,69.999,247.0216,269.0767,91.0009,-0.00010529,-1.349e-05,0.0,0 STARLINK-5602,1 55743U 23028C   23164.27560174 -.00001349  00000-0 -10529-3 0  9996,2 55743  69.9990 247.0216 0003341 269.0767  91.0009 14.98325922 16188,6950.206,96.107,574.393,569.748,0.0
55743.0,STARLINK-5602,PAYLOAD,2023-06-14 05:02:44,14.98331555,0.0003302,69.9989,244.6661,270.7382,89.3398,-2.8099e-05,-4.28e-06,0.0,0 STARLINK-5602,1 55743U 23028C   23165.21023643 -.00000428  00000-0 -28099-4 0  9995,2 55743  69.9989 244.6661 0003302 270.7382  89.3398 14.98331555 16328,6950.188,96.107,574.348,569.758,0.0
55743.0,STARLINK-5602,PAYLOAD,2023-06-15 03:28:38,14.98298295,0.0003466,69.9984,242.3083,267.9686,92.1076,0.00044021,5.159e-05,0.0,0 STARLINK-5602,1 55743U 23028C   23166.14488685  .00005159  00000-0  44021-3 0  9995,2 55743  69.9984 242.3083 0003466 267.9686  92.1076 14.98298295 16465,6950.291,96.109,574.565,569.747,0.0
55743.0,STARLINK-5602,PAYLOAD,2023-06-15 09:53:10,14.98314643,0.0003452,69.9985,241.635,270.769,89.3073,0.00012018,1.341e-05,0.0,0 STARLINK-5602,1 55743U 23028C   23166.41192433  .00001341  00000-0  12018-3 0  9998,2 55743  69.9985 241.6350 0003452 270.7690  89.3073 14.98314643 16503,6950.24,96.108,574.505,569.706,0.0
55743.0,STARLINK-5602,PAYLOAD,2023-06-15 13:05:26,14.9832445,0.0003225,69.9986,241.298,266.9138,93.1652,8.5244e-06,9e-08,0.0,0 STARLINK-5602,1 55743U 23028C   23166.54544083  .00000009  00000-0  85244-5 0  9997,2 55743  69.9986 241.2980 0003225 266.9138  93.1652 14.98324450 16526,6950.21,96.107,574.316,569.834,0.0
55743.0,STARLINK-5602,PAYLOAD,2023-06-15 14:41:34,14.98326167,0.000347,69.9984,241.1301,271.2278,88.8483,1.4486e-05,8e-07,0.0,0 STARLINK-5602,1 55743U 23028C   23166.61219975  .00000080  00000-0  14486-4 0  9992,2 55743  69.9984 241.1301 0003470 271.2278  88.8483 14.98326167 16537,6950.205,96.107,574.481,569.658,0.0
55743.0,STARLINK-5602,PAYLOAD,2023-06-16 11:31:17,14.98341276,0.0002998,69.9984,238.9415,265.1812,94.9004,0.00010501,1.161e-05,0.0,0 STARLINK-5602,1 55743U 23028C   23167.48006715  .00001161  00000-0  10501-3 0  9998,2 55743  69.9984 238.9415 0002998 265.1812  94.9004 14.98341276 16666,6950.158,96.106,574.107,569.939,0.0
55743.0,STARLINK-5602,PAYLOAD,2023-06-16 14:43:33,14.98342147,0.0003467,69.9985,238.6048,270.3919,89.6843,0.00015665,1.777e-05,0.0,0 STARLINK-5602,1 55743U 23028C   23167.61358411  .00001777  00000-0  15665-3 0  9995,2 55743  69.9985 238.6048 0003467 270.3919  89.6843 14.98342147 16686,6950.155,96.106,574.43,569.611,0.0
55743.0,STARLINK-5602,PAYLOAD,2023-06-17 05:08:47,14.98320724,0.0003234,70.0017,237.0905,260.6148,99.4646,0.00012195,1.362e-05,0.0,0 STARLINK-5602,1 55743U 23028C   23168.21443730  .00001362  00000-0  12195-3 0  9996,2 55743  70.0017 237.0905 0003234 260.6148  99.4646 14.98320724 16775,6950.222,96.108,574.334,569.839,0.0
55743.0,STARLINK-5602,PAYLOAD,2023-06-17 11:33:20,14.98319771,0.0002304,70.0004,236.4177,250.0751,110.016,3.7425e-05,3.54e-06,0.0,0 STARLINK-5602,1 55743U 23028C   23168.48148207  .00000354  00000-0  37425-4 0  9990,2 55743  70.0004 236.4177 0002304 250.0751 110.0160 14.98319771 16811,6950.225,96.108,573.691,570.488,0.0
55743.0,STARLINK-5602,PAYLOAD,2023-06-17 21:10:08,14.98328534,0.000352,69.9985,235.4064,270.3606,89.7149,-1.3598e-05,-2.55e-06,0.0,0 STARLINK-5602,1 55743U 23028C   23168.88203823 -.00000255  00000-0 -13598-4 0  9997,2 55743  69.9985 235.4064 0003520 270.3606  89.7149 14.98328534 16877,6950.197,96.107,574.509,569.616,0.0
55743.0,STARLINK-5602,PAYLOAD,2023-06-18 05:10:48,14.98334383,0.0003533,69.9983,234.565,268.3822,91.6933,-5.4026e-05,-7.38e-06,0.0,0 STARLINK-5602,1 55743U 23028C   23169.21583537 -.00000738  00000-0 -54026-4 0  9995,2 55743  69.9983 234.5650 0003533 268.3822  91.6933 14.98334383 16925,6950.179,96.107,574.5,569.589,0.0
